SZ-21 MODULE            
1 66515U 25246C   25337.33312405  .00032620  00000+0  36812-3 0  9998
2 66515  41.4771  73.3983 0005832 205.8085 154.2464 15.61790567  2979
SHENZHOU-22             
1 66645U 25272A   25338.32227863  .00037313  00000+0  47339-3 0  9994
2 66645  41.4682  67.7893 0009961 326.0847  33.9353 15.58643052262745
CZ-2F R/B               
1 66646U 25272B   25330.47076975  .00449059  75676-5  29319-3 0  9998
2 66646  41.4431 114.9009 0121079 133.7676 227.3272 16.01945612   217
SOYUZ-MS 28             
1 66664U 25275A   25338.09188027  .00015824  00000+0  29177-3 0  9993
2 66664  51.6302 185.2932 0003628 200.9086 159.1754 15.49293095  1102
